{
  "type": "FeatureCollection",
  "features": [
    {
      "type": "Feature",
      "properties": {
        "norad_id": 40730,
        "name": "GPS BIIF-10 (PRN 08)",
        "group": "gps-ops",
        "lat": -29.526408833951375,
        "lon": -109.90891062815206,
        "alt_km": 20055.445664710995,
        "timestamp": "2025-12-25T03:55:56.616004+00:00",
        "meta_object_name": "GPS BIIF-10 (PRN 08)",
        "meta_object_id": "2015-033A",
        "meta_epoch": "2025-12-24T17:11:33.292320",
        "meta_mean_motion": 2.00564999,
        "meta_eccentricity": 0.0111668,
        "meta_inclination": 54.1203,
        "meta_ra_of_asc_node": 274.2801,
        "meta_arg_of_pericenter": 27.125,
        "meta_mean_anomaly": 333.5048,
        "meta_ephemeris_type": 0,
        "meta_classification_type": "U",
        "meta_norad_cat_id": 40730,
        "meta_element_set_no": 999,
        "meta_rev_at_epoch": 7649,
        "meta_bstar": 0,
        "meta_mean_motion_dot": -1.6e-07,
        "meta_mean_motion_ddot": 0,
        "tle_line1": "1 40730U 15033A   25358.71635755 -.00000016  00000+0  00000+0 0  9994",
        "tle_line2": "2 40730  54.1203 274.2801 0111668  27.1250 333.5048  2.00564999 76491"
      },
      "geometry": {
        "type": "Point",
        "coordinates": [
          -109.90891062815206,
          -29.526408833951375
        ]
      }
    },
    {
      "type": "Feature",
      "properties": {
        "norad_id": 41019,
        "name": "GPS BIIF-11 (PRN 10)",
        "group": "gps-ops",
        "lat": -55.46179161133719,
        "lon": -34.17196848716429,
        "alt_km": 19995.660291372686,
        "timestamp": "2025-12-25T03:55:56.616015+00:00",
        "meta_object_name": "GPS BIIF-11 (PRN 10)",
        "meta_object_id": "2015-062A",
        "meta_epoch": "2025-12-23T18:41:09.835584",
        "meta_mean_motion": 2.00567099,
        "meta_eccentricity": 0.01110889,
        "meta_inclination": 56.8401,
        "meta_ra_of_asc_node": 37.5754,
        "meta_arg_of_pericenter": 230.2332,
        "meta_mean_anomaly": 128.8479,
        "meta_ephemeris_type": 0,
        "meta_classification_type": "U",
        "meta_norad_cat_id": 41019,
        "meta_element_set_no": 999,
        "meta_rev_at_epoch": 7431,
        "meta_bstar": 0,
        "meta_mean_motion_dot": -4.7e-07,
        "meta_mean_motion_ddot": 0,
        "tle_line1": "1 41019U 15062A   25357.77858606 -.00000047  00000+0  00000+0 0  9998",
        "tle_line2": "2 41019  56.8401  37.5754 0111088 230.2332 128.8479  2.00567099 74318"
      },
      "geometry": {
        "type": "Point",
        "coordinates": [
          -34.17196848716429,
          -55.46179161133719
        ]
      }
    },
    {
      "type": "Feature",
      "properties": {
        "norad_id": 41328,
        "name": "GPS BIIF-12 (PRN 32)",
        "group": "gps-ops",
        "lat": -31.270286952408537,
        "lon": -58.89547616141329,
        "alt_km": 19962.499523872597,
        "timestamp": "2025-12-25T03:55:56.616026+00:00",
        "meta_object_name": "GPS BIIF-12 (PRN 32)",
        "meta_object_id": "2016-007A",
        "meta_epoch": "2025-12-23T20:40:23.632032",
        "meta_mean_motion": 2.00560126,
        "meta_eccentricity": 0.00927286,
        "meta_inclination": 55.4122,
        "meta_ra_of_asc_node": 96.4156,
        "meta_arg_of_pericenter": 243.8623,
        "meta_mean_anomaly": 115.1928,
        "meta_ephemeris_type": 0,
        "meta_classification_type": "U",
        "meta_norad_cat_id": 41328,
        "meta_element_set_no": 999,
        "meta_rev_at_epoch": 7232,
        "meta_bstar": 0,
        "meta_mean_motion_dot": 1.1e-07,
        "meta_mean_motion_ddot": 0,
        "tle_line1": "1 41328U 16007A   25357.86138463  .00000011  00000+0  00000+0 0  9993",
        "tle_line2": "2 41328  55.4122  96.4156 0092728 243.8623 115.1928  2.00560126 72329"
      },
      "geometry": {
        "type": "Point",
        "coordinates": [
          -58.89547616141329,
          -31.270286952408537
        ]
      }
    },
    {
      "type": "Feature",
      "properties": {
        "norad_id": 43873,
        "name": "GPS BIII-1  (PRN 04)",
        "group": "gps-ops",
        "lat": 49.209449188429836,
        "lon": -133.47365464940245,
        "alt_km": 20163.17007640004,
        "timestamp": "2025-12-25T03:55:56.616037+00:00",
        "meta_object_name": "GPS BIII-1  (PRN 04)",
        "meta_object_id": "2018-109A",
        "meta_epoch": "2025-12-24T12:17:00.757248",
        "meta_mean_motion": 2.00553945,
        "meta_eccentricity": 0.0037616,
        "meta_inclination": 55.5731,
        "meta_ra_of_asc_node": 99.0827,
        "meta_arg_of_pericenter": 195.5593,
        "meta_mean_anomaly": 167.4766,
        "meta_ephemeris_type": 0,
        "meta_classification_type": "U",
        "meta_norad_cat_id": 43873,
        "meta_element_set_no": 999,
        "meta_rev_at_epoch": 5157,
        "meta_bstar": 0,
        "meta_mean_motion_dot": 1.7e-07,
        "meta_mean_motion_ddot": 0,
        "tle_line1": "1 43873U 18109A   25358.51181432  .00000017  00000+0  00000+0 0  9998",
        "tle_line2": "2 43873  55.5731  99.0827 0037616 195.5593 167.4766  2.00553945 51576"
      },
      "geometry": {
        "type": "Point",
        "coordinates": [
          -133.47365464940245,
          49.209449188429836
        ]
      }
    },
    {
      "type": "Feature",
      "properties": {
        "norad_id": 44506,
        "name": "GPS BIII-2  (PRN 18)",
        "group": "gps-ops",
        "lat": 9.38876104868942,
        "lon": -15.47900041356762,
        "alt_km": 20332.90580492881,
        "timestamp": "2025-12-25T03:55:56.616049+00:00",
        "meta_object_name": "GPS BIII-2  (PRN 18)",
        "meta_object_id": "2019-056A",
        "meta_epoch": "2025-12-24T09:26:38.145120",
        "meta_mean_motion": 2.00566563,
        "meta_eccentricity": 0.005776,
        "meta_inclination": 55.7172,
        "meta_ra_of_asc_node": 338.0907,
        "meta_arg_of_pericenter": 198.6314,
        "meta_mean_anomaly": 336.4409,
        "meta_ephemeris_type": 0,
        "meta_classification_type": "U",
        "meta_norad_cat_id": 44506,
        "meta_element_set_no": 999,
        "meta_rev_at_epoch": 4656,
        "meta_bstar": 0,
        "meta_mean_motion_dot": -6e-07,
        "meta_mean_motion_ddot": 0,
        "tle_line1": "1 44506U 19056A   25358.39349705 -.00000060  00000+0  00000+0 0  9998",
        "tle_line2": "2 44506  55.7172 338.0907 0057760 198.6314 336.4409  2.00566563 46568"
      },
      "geometry": {
        "type": "Point",
        "coordinates": [
          -15.47900041356762,
          9.38876104868942
        ]
      }
    },
    {
      "type": "Feature",
      "properties": {
        "norad_id": 45854,
        "name": "GPS BIII-3  (PRN 23)",
        "group": "gps-ops",
        "lat": -35.60562885140872,
        "lon": 7.482577236147421,
        "alt_km": 20246.01118373271,
        "timestamp": "2025-12-25T03:55:56.616060+00:00",
        "meta_object_name": "GPS BIII-3  (PRN 23)",
        "meta_object_id": "2020-041A",
        "meta_epoch": "2025-12-24T07:36:15.586848",
        "meta_mean_motion": 2.00561688,
        "meta_eccentricity": 0.00606528,
        "meta_inclination": 56.5546,
        "meta_ra_of_asc_node": 35.7353,
        "meta_arg_of_pericenter": 203.7393,
        "meta_mean_anomaly": 219.8521,
        "meta_ephemeris_type": 0,
        "meta_classification_type": "U",
        "meta_norad_cat_id": 45854,
        "meta_element_set_no": 999,
        "meta_rev_at_epoch": 4053,
        "meta_bstar": 0,
        "meta_mean_motion_dot": -4.9e-07,
        "meta_mean_motion_ddot": 0,
        "tle_line1": "1 45854U 20041A   25358.31684707 -.00000049  00000+0  00000+0 0  9994",
        "tle_line2": "2 45854  56.5546  35.7353 0060652 203.7393 219.8521  2.00561688 40537"
      },
      "geometry": {
        "type": "Point",
        "coordinates": [
          7.482577236147421,
          -35.60562885140872
        ]
      }
    },
    {
      "type": "Feature",
      "properties": {
        "norad_id": 46826,
        "name": "GPS BIII-4  (PRN 14)",
        "group": "gps-ops",
        "lat": -50.62040999152494,
        "lon": 155.56645077278594,
        "alt_km": 20166.858444813137,
        "timestamp": "2025-12-25T03:55:56.616076+00:00",
        "meta_object_name": "GPS BIII-4  (PRN 14)",
        "meta_object_id": "2020-078A",
        "meta_epoch": "2025-12-16T01:06:13.902336",
        "meta_mean_motion": 2.00566891,
        "meta_eccentricity": 0.0064754,
        "meta_inclination": 54.0144,
        "meta_ra_of_asc_node": 218.2068,
        "meta_arg_of_pericenter": 203.3802,
        "meta_mean_anomaly": 339.3962,
        "meta_ephemeris_type": 0,
        "meta_classification_type": "U",
        "meta_norad_cat_id": 46826,
        "meta_element_set_no": 999,
        "meta_rev_at_epoch": 3783,
        "meta_bstar": 0,
        "meta_mean_motion_dot": 6.7e-07,
        "meta_mean_motion_ddot": 0,
        "tle_line1": "1 46826U 20078A   25350.04599424  .00000067  00000+0  00000+0 0  9996",
        "tle_line2": "2 46826  54.0144 218.2068 0064754 203.3802 339.3962  2.00566891 37830"
      },
      "geometry": {
        "type": "Point",
        "coordinates": [
          155.56645077278594,
          -50.62040999152494
        ]
      }
    }
  ]
}